CCSDS_OMM_VERS = 2.0
CREATION_DATE  = 
ORIGINATOR     = 

OBJECT_NAME    = SL-14 R/B
OBJECT_ID      = 1986-046B
CENTER_NAME    = EARTH
REF_FRAME      = TEME
TIME_SYSTEM    = UTC
MEAN_ELEMENT_THEORY = SGP/SGP4

EPOCH          = 2026-02-11T16:09:39.925728
MEAN_MOTION    = 14.85565028
ECCENTRICITY   = .00220039
INCLINATION    = 82.4810
RA_OF_ASC_NODE = 104.7685
ARG_OF_PERICENTER = 316.8215
MEAN_ANOMALY   = 43.1275

EPHEMERIS_TYPE = 0
CLASSIFICATION_TYPE = U
NORAD_CAT_ID   = 16792
ELEMENT_SET_NO = 999
REV_AT_EPOCH   = 12254
BSTAR          = .49739978E-4
MEAN_MOTION_DOT = .456E-5
MEAN_MOTION_DDOT = 0

CCSDS_OMM_VERS = 2.0
CREATION_DATE  = 
ORIGINATOR     = 

OBJECT_NAME    = SL-14 R/B
OBJECT_ID      = 1986-055B
CENTER_NAME    = EARTH
REF_FRAME      = TEME
TIME_SYSTEM    = UTC
MEAN_ELEMENT_THEORY = SGP/SGP4

EPOCH          = 2026-02-11T19:44:10.059360
MEAN_MOTION    = 14.85615982
ECCENTRICITY   = .0020192
INCLINATION    = 82.5233
RA_OF_ASC_NODE = 150.9798
ARG_OF_PERICENTER = 60.2686
MEAN_ANOMALY   = 96.0853

EPHEMERIS_TYPE = 0
CLASSIFICATION_TYPE = U
NORAD_CAT_ID   = 16882
ELEMENT_SET_NO = 999
REV_AT_EPOCH   = 11552
BSTAR          = .63802266E-4
MEAN_MOTION_DOT = .579E-5
MEAN_MOTION_DDOT = 0

CCSDS_OMM_VERS = 2.0
CREATION_DATE  = 
ORIGINATOR     = 

OBJECT_NAME    = AJISAI (EGS)
OBJECT_ID      = 1986-061A
CENTER_NAME    = EARTH
REF_FRAME      = TEME
TIME_SYSTEM    = UTC
MEAN_ELEMENT_THEORY = SGP/SGP4

EPOCH          = 2026-02-11T22:39:18.081792
MEAN_MOTION    = 12.44515324
ECCENTRICITY   = .00112431
INCLINATION    = 50.0083
RA_OF_ASC_NODE = 172.5157
ARG_OF_PERICENTER = 220.6855
MEAN_ANOMALY   = 240.0070

EPHEMERIS_TYPE = 0
CLASSIFICATION_TYPE = U
NORAD_CAT_ID   = 16908
ELEMENT_SET_NO = 999
REV_AT_EPOCH   = 46479
BSTAR          = -.92675559E-4
MEAN_MOTION_DOT = -.11E-5
MEAN_MOTION_DDOT = 0

CCSDS_OMM_VERS = 2.0
CREATION_DATE  = 
ORIGINATOR     = 

OBJECT_NAME    = COSMOS 1812
OBJECT_ID      = 1987-003A
CENTER_NAME    = EARTH
REF_FRAME      = TEME
TIME_SYSTEM    = UTC
MEAN_ELEMENT_THEORY = SGP/SGP4

EPOCH          = 2026-02-11T22:29:39.244992
MEAN_MOTION    = 15.97139079
ECCENTRICITY   = .00019372
INCLINATION    = 82.4760
RA_OF_ASC_NODE = 224.8860
ARG_OF_PERICENTER = 308.0561
MEAN_ANOMALY   = 52.0540

EPHEMERIS_TYPE = 0
CLASSIFICATION_TYPE = U
NORAD_CAT_ID   = 17295
ELEMENT_SET_NO = 999
REV_AT_EPOCH   = 14034
BSTAR          = .76667659E-3
MEAN_MOTION_DOT = .331465E-2
MEAN_MOTION_DDOT = .42771754E-4

CCSDS_OMM_VERS = 2.0
CREATION_DATE  = 
ORIGINATOR     = 

OBJECT_NAME    = SL-14 R/B
OBJECT_ID      = 1987-024B
CENTER_NAME    = EARTH
REF_FRAME      = TEME
TIME_SYSTEM    = UTC
MEAN_ELEMENT_THEORY = SGP/SGP4

EPOCH          = 2026-02-11T17:11:25.995840
MEAN_MOTION    = 14.86107218
ECCENTRICITY   = .00179031
INCLINATION    = 82.5286
RA_OF_ASC_NODE = 117.1763
ARG_OF_PERICENTER = 351.6968
MEAN_ANOMALY   = 8.3950

EPHEMERIS_TYPE = 0
CLASSIFICATION_TYPE = U
NORAD_CAT_ID   = 17567
ELEMENT_SET_NO = 999
REV_AT_EPOCH   = 8427
BSTAR          = .50536242E-4
MEAN_MOTION_DOT = .468E-5
MEAN_MOTION_DDOT = 0

CCSDS_OMM_VERS = 2.0
CREATION_DATE  = 
ORIGINATOR     = 

OBJECT_NAME    = COSMOS 1833
OBJECT_ID      = 1987-027A
CENTER_NAME    = EARTH
REF_FRAME      = TEME
TIME_SYSTEM    = UTC
MEAN_ELEMENT_THEORY = SGP/SGP4

EPOCH          = 2026-02-11T22:49:53.277312
MEAN_MOTION    = 14.13057044
ECCENTRICITY   = .00249097
INCLINATION    = 70.9219
RA_OF_ASC_NODE = 20.1103
ARG_OF_PERICENTER = 249.1042
MEAN_ANOMALY   = 110.7412

EPHEMERIS_TYPE = 0
CLASSIFICATION_TYPE = U
NORAD_CAT_ID   = 17589
ELEMENT_SET_NO = 999
REV_AT_EPOCH   = 668
BSTAR          = .36068248E-4
MEAN_MOTION_DOT = .19E-6
MEAN_MOTION_DDOT = 0

CCSDS_OMM_VERS = 2.0
CREATION_DATE  = 
ORIGINATOR     = 

OBJECT_NAME    = SL-16 R/B
OBJECT_ID      = 1987-027B
CENTER_NAME    = EARTH
REF_FRAME      = TEME
TIME_SYSTEM    = UTC
MEAN_ELEMENT_THEORY = SGP/SGP4

EPOCH          = 2026-02-11T22:17:40.028064
MEAN_MOTION    = 14.17162939
ECCENTRICITY   = .00049062
INCLINATION    = 71.0048
RA_OF_ASC_NODE = 330.7782
ARG_OF_PERICENTER = 188.1606
MEAN_ANOMALY   = 171.9439

EPHEMERIS_TYPE = 0
CLASSIFICATION_TYPE = U
NORAD_CAT_ID   = 17590
ELEMENT_SET_NO = 999
REV_AT_EPOCH   = 1169
BSTAR          = -.52127146E-4
MEAN_MOTION_DOT = -.153E-5
MEAN_MOTION_DDOT = 0

CCSDS_OMM_VERS = 2.0
CREATION_DATE  = 
ORIGINATOR     = 

OBJECT_NAME    = SL-14 R/B
OBJECT_ID      = 1987-038B
CENTER_NAME    = EARTH
REF_FRAME      = TEME
TIME_SYSTEM    = UTC
MEAN_ELEMENT_THEORY = SGP/SGP4

EPOCH          = 2026-02-11T18:21:55.140192
MEAN_MOTION    = 14.85343991
ECCENTRICITY   = .00177273
INCLINATION    = 82.5039
RA_OF_ASC_NODE = 321.2242
ARG_OF_PERICENTER = 248.9889
MEAN_ANOMALY   = 110.9431

EPHEMERIS_TYPE = 0
CLASSIFICATION_TYPE = U
NORAD_CAT_ID   = 17912
ELEMENT_SET_NO = 999
REV_AT_EPOCH   = 7538
BSTAR          = .59121757E-4
MEAN_MOTION_DOT = .533E-5
MEAN_MOTION_DDOT = 0

CCSDS_OMM_VERS = 2.0
CREATION_DATE  = 
ORIGINATOR     = 

OBJECT_NAME    = COSMOS 1844
OBJECT_ID      = 1987-041A
CENTER_NAME    = EARTH
REF_FRAME      = TEME
TIME_SYSTEM    = UTC
MEAN_ELEMENT_THEORY = SGP/SGP4

EPOCH          = 2026-02-11T12:26:59.074656
MEAN_MOTION    = 14.14543259
ECCENTRICITY   = .0028914
INCLINATION    = 70.8980
RA_OF_ASC_NODE = 89.3801
ARG_OF_PERICENTER = 59.7898
MEAN_ANOMALY   = 300.6081

EPHEMERIS_TYPE = 0
CLASSIFICATION_TYPE = U
NORAD_CAT_ID   = 17973
ELEMENT_SET_NO = 999
REV_AT_EPOCH   = 99988
BSTAR          = .25027109E-3
MEAN_MOTION_DOT = .434E-5
MEAN_MOTION_DDOT = 0

CCSDS_OMM_VERS = 2.0
CREATION_DATE  = 
ORIGINATOR     = 

OBJECT_NAME    = SL-14 R/B
OBJECT_ID      = 1987-055B
CENTER_NAME    = EARTH
REF_FRAME      = TEME
TIME_SYSTEM    = UTC
MEAN_ELEMENT_THEORY = SGP/SGP4

EPOCH          = 2026-02-11T22:46:12.057024
MEAN_MOTION    = 14.85597182
ECCENTRICITY   = .0022313
INCLINATION    = 82.5001
RA_OF_ASC_NODE = 13.2869
ARG_OF_PERICENTER = 97.9536
MEAN_ANOMALY   = 262.4213

EPHEMERIS_TYPE = 0
CLASSIFICATION_TYPE = U
NORAD_CAT_ID   = 18153
ELEMENT_SET_NO = 999
REV_AT_EPOCH   = 6611
BSTAR          = .69986607E-4
MEAN_MOTION_DOT = .633E-5
MEAN_MOTION_DDOT = 0

CCSDS_OMM_VERS = 2.0
CREATION_DATE  = 
ORIGINATOR     = 

OBJECT_NAME    = COSMOS 1867
OBJECT_ID      = 1987-060A
CENTER_NAME    = EARTH
REF_FRAME      = TEME
TIME_SYSTEM    = UTC
MEAN_ELEMENT_THEORY = SGP/SGP4

EPOCH          = 2026-02-11T22:36:08.421696
MEAN_MOTION    = 14.31498887
ECCENTRICITY   = .00141301
INCLINATION    = 65.0116
RA_OF_ASC_NODE = 18.8086
ARG_OF_PERICENTER = 276.8794
MEAN_ANOMALY   = 83.0683

EPHEMERIS_TYPE = 0
CLASSIFICATION_TYPE = U
NORAD_CAT_ID   = 18187
ELEMENT_SET_NO = 999
REV_AT_EPOCH   = 1625
BSTAR          = .33103743E-4
MEAN_MOTION_DOT = -.12E-6
MEAN_MOTION_DDOT = 0

CCSDS_OMM_VERS = 2.0
CREATION_DATE  = 
ORIGINATOR     = 

OBJECT_NAME    = SL-14 R/B
OBJECT_ID      = 1988-001B
CENTER_NAME    = EARTH
REF_FRAME      = TEME
TIME_SYSTEM    = UTC
MEAN_ELEMENT_THEORY = SGP/SGP4

EPOCH          = 2026-02-11T22:36:52.097760
MEAN_MOTION    = 14.85496405
ECCENTRICITY   = .00172057
INCLINATION    = 82.5110
RA_OF_ASC_NODE = 219.5766
ARG_OF_PERICENTER = 327.7252
MEAN_ANOMALY   = 32.2910

EPHEMERIS_TYPE = 0
CLASSIFICATION_TYPE = U
NORAD_CAT_ID   = 18749
ELEMENT_SET_NO = 999
REV_AT_EPOCH   = 3820
BSTAR          = .64408745E-4
MEAN_MOTION_DOT = .581E-5
MEAN_MOTION_DDOT = 0

