SL-14 R/B               
1 16792U 86046B   26042.67337877  .00000456  00000+0  49740-4 0  9993
2 16792  82.4810 104.7685 0022003 316.8215  43.1275 14.85565028122544
SL-14 R/B               
1 16882U 86055B   26042.82233865  .00000579  00000+0  63802-4 0  9993
2 16882  82.5233 150.9798 0020192  60.2686  96.0853 14.85615982115525
AJISAI (EGS)            
1 16908U 86061A   26042.94395928 -.00000110  00000+0 -92676-4 0  9995
2 16908  50.0083 172.5157 0011243 220.6855 240.0070 12.44515324464793
COSMOS 1812             
1 17295U 87003A   26042.93725978  .00331465  42772-4  76668-3 0  9990
2 17295  82.4760 224.8860 0001937 308.0561  52.0540 15.97139079140345
SL-14 R/B               
1 17567U 87024B   26042.71627310  .00000468  00000+0  50536-4 0  9998
2 17567  82.5286 117.1763 0017903 351.6968   8.3950 14.86107218 84277
COSMOS 1833             
1 17589U 87027A   26042.95131108  .00000019  00000+0  36068-4 0  9992
2 17589  70.9219  20.1103 0024909 249.1042 110.7412 14.13057044  6688
SL-16 R/B               
1 17590U 87027B   26042.92893551 -.00000153  00000+0 -52127-4 0  9993
2 17590  71.0048 330.7782 0004906 188.1606 171.9439 14.17162939 11697
SL-14 R/B               
1 17912U 87038B   26042.76522153  .00000533  00000+0  59122-4 0  9994
2 17912  82.5039 321.2242 0017727 248.9889 110.9431 14.85343991 75386
COSMOS 1844             
1 17973U 87041A   26042.51873929  .00000434  00000+0  25027-3 0  9994
2 17973  70.8980  89.3801 0028914  59.7898 300.6081 14.14543259999889
SL-14 R/B               
1 18153U 87055B   26042.94875066  .00000633  00000+0  69987-4 0  9996
2 18153  82.5001  13.2869 0022313  97.9536 262.4213 14.85597182 66119
COSMOS 1867             
1 18187U 87060A   26042.94176414 -.00000012  00000+0  33104-4 0  9994
2 18187  65.0116  18.8086 0014130 276.8794  83.0683 14.31498887 16254
SL-14 R/B               
1 18749U 88001B   26042.94226965  .00000581  00000+0  64409-4 0  9993
2 18749  82.5110 219.5766 0017205 327.7252  32.2910 14.85496405 38203
